[{"OBJECT_NAME":"STARLINK-4367","OBJECT_ID":"2022-084AS","EPOCH":"2026-03-09T18:05:37.658976","MEAN_MOTION":15.05648768,"ECCENTRICITY":9.235e-5,"INCLINATION":97.6027,"RA_OF_ASC_NODE":131.2595,"ARG_OF_PERICENTER":95.504,"MEAN_ANOMALY":264.6292,"EPHEMERIS_TYPE":0,"CLASSIFICATION_TYPE":"U","NORAD_CAT_ID":53229,"ELEMENT_SET_NO":999,"REV_AT_EPOCH":19939,"BSTAR":-2.2863299e-5,"MEAN_MOTION_DOT":-3.91e-6,"MEAN_MOTION_DDOT":0},{"OBJECT_NAME":"IRIDIUM 33 DEB","OBJECT_ID":"1997-051ABJ","EPOCH":"2026-03-07T11:02:11.153184","MEAN_MOTION":15.04355632,"ECCENTRICITY":0.00105712,"INCLINATION":86.348,"RA_OF_ASC_NODE":321.5871,"ARG_OF_PERICENTER":86.7515,"MEAN_ANOMALY":38.318,"EPHEMERIS_TYPE":0,"CLASSIFICATION_TYPE":"U","NORAD_CAT_ID":40996,"ELEMENT_SET_NO":999,"REV_AT_EPOCH":63758,"BSTAR":0.0045408492,"MEAN_MOTION_DOT":0.00063892,"MEAN_MOTION_DDOT":0}]
